{"type": "FeatureCollection", "features": [ {"type": "Feature", "properties": {"norad_id": 31384, "name": "FENGYUN 1C DEB", "group": "fengyun-1c-debris", "lat": -46.992676290194254, "lon": -41.5751490943247, "alt_km": 991.562667196361, "timestamp": "2025-12-08T19:31:49.090781+00:00", "meta": {"OBJECT_NAME": "FENGYUN 1C DEB", "OBJECT_ID": "1999-025BSQ", "EPOCH": "2025-12-08T04:13:31.416384", "MEAN_MOTION": 13.86050931, "ECCENTRICITY": 0.04406196, "INCLINATION": 98.4582, "RA_OF_ASC_NODE": 308.6672, "ARG_OF_PERICENTER": 54.2034, "MEAN_ANOMALY": 322.9436, "EPHEMERIS_TYPE": 0, "CLASSIFICATION_TYPE": "U", "NORAD_CAT_ID": 31384, "ELEMENT_SET_NO": 999, "REV_AT_EPOCH": 92961, "BSTAR": 0.0028698607, "MEAN_MOTION_DOT": 7.083e-05, "MEAN_MOTION_DDOT": 0}, "tle": {"line1": "1 31384U 99025BSQ 25342.17605806  .00007083  00000+0  28699-2 0  9996", "line2": "2 31384  98.4582 308.6672 0440619  54.2034 322.9436 13.86050931929613"}}, "geometry": {"type": "Point", "coordinates": [-41.5751490943247, -46.992676290194254]}}, {"type": "Feature", "properties": {"norad_id": 31385, "name": "FENGYUN 1C DEB", "group": "fengyun-1c-debris", "lat": 11.277549425922455, "lon": 70.95842982093183, "alt_km": 691.6165080939991, "timestamp": "2025-12-08T19:31:49.090790+00:00", "meta": {"OBJECT_NAME": "FENGYUN 1C DEB", "OBJECT_ID": "1999-025BSR", "EPOCH": "2025-12-08T00:18:35.726400", "MEAN_MOTION": 14.43988949, "ECCENTRICITY": 0.01348196, "INCLINATION": 98.9544, "RA_OF_ASC_NODE": 71.9176, "ARG_OF_PERICENTER": 69.5562, "MEAN_ANOMALY": 102.5231, "EPHEMERIS_TYPE": 0, "CLASSIFICATION_TYPE": "U", "NORAD_CAT_ID": 31385, "ELEMENT_SET_NO": 999, "REV_AT_EPOCH": 98546, "BSTAR": 0.0002381553, "MEAN_MOTION_DOT": 8.55e-06, "MEAN_MOTION_DDOT": 0}, "tle": {"line1": "1 31385U 99025BSR 25342.01291350  .00000855  00000+0  23816-3 0  9992", "line2": "2 31385  98.9544  71.9176 0134819  69.5562 102.5231 14.43988949985466"}}, "geometry": {"type": "Point", "coordinates": [70.95842982093183, 11.277549425922455]}}, {"type": "Feature", "properties": {"norad_id": 31386, "name": "FENGYUN 1C DEB", "group": "fengyun-1c-debris", "lat": 16.17313181147655, "lon": -179.43351937225745, "alt_km": 1037.6861164724123, "timestamp": "2025-12-08T19:31:49.090799+00:00", "meta": {"OBJECT_NAME": "FENGYUN 1C DEB", "OBJECT_ID": "1999-025BSS", "EPOCH": "2025-12-07T23:40:04.097856", "MEAN_MOTION": 13.85992319, "ECCENTRICITY": 0.01975374, "INCLINATION": 98.4416, "RA_OF_ASC_NODE": 357.3514, "ARG_OF_PERICENTER": 297.4242, "MEAN_ANOMALY": 60.6947, "EPHEMERIS_TYPE": 0, "CLASSIFICATION_TYPE": "U", "NORAD_CAT_ID": 31386, "ELEMENT_SET_NO": 999, "REV_AT_EPOCH": 93796, "BSTAR": 0.0027124284, "MEAN_MOTION_DOT": 3.597e-05, "MEAN_MOTION_DDOT": 0}, "tle": {"line1": "1 31386U 99025BSS 25341.98615854  .00003597  00000+0  27124-2 0  9998", "line2": "2 31386  98.4416 357.3514 0197537 297.4242  60.6947 13.85992319937961"}}, "geometry": {"type": "Point", "coordinates": [-179.43351937225745, 16.17313181147655]}}, {"type": "Feature", "properties": {"norad_id": 31387, "name": "FENGYUN 1C DEB", "group": "fengyun-1c-debris", "lat": 46.31850564308891, "lon": 50.90829765871677, "alt_km": 727.3359766687727, "timestamp": "2025-12-08T19:31:49.090808+00:00", "meta": {"OBJECT_NAME": "FENGYUN 1C DEB", "OBJECT_ID": "1999-025BST", "EPOCH": "2025-12-06T22:43:27.576480", "MEAN_MOTION": 14.13560438, "ECCENTRICITY": 0.02414641, "INCLINATION": 99.1686, "RA_OF_ASC_NODE": 219.257, "ARG_OF_PERICENTER": 187.5601, "MEAN_ANOMALY": 172.1904, "EPHEMERIS_TYPE": 0, "CLASSIFICATION_TYPE": "U", "NORAD_CAT_ID": 31387, "ELEMENT_SET_NO": 999, "REV_AT_EPOCH": 96215, "BSTAR": 0.00038701787, "MEAN_MOTION_DOT": 9.14e-06, "MEAN_MOTION_DDOT": 0}, "tle": {"line1": "1 31387U 99025BST 25340.94684695  .00000914  00000+0  38702-3 0  9998", "line2": "2 31387  99.1686 219.2570 0241464 187.5601 172.1904 14.13560438962150"}}, "geometry": {"type": "Point", "coordinates": [50.90829765871677, 46.31850564308891]}}, {"type": "Feature", "properties": {"norad_id": 31388, "name": "FENGYUN 1C DEB", "group": "fengyun-1c-debris", "lat": 77.97067471036256, "lon": -75.78540428807507, "alt_km": 882.515929111516, "timestamp": "2025-12-08T19:31:49.090818+00:00", "meta": {"OBJECT_NAME": "FENGYUN 1C DEB", "OBJECT_ID": "1999-025BSU", "EPOCH": "2025-12-08T05:48:50.382720", "MEAN_MOTION": 14.07423819, "ECCENTRICITY": 0.00463035, "INCLINATION": 98.8046, "RA_OF_ASC_NODE": 330.3208, "ARG_OF_PERICENTER": 213.7576, "MEAN_ANOMALY": 214.3482, "EPHEMERIS_TYPE": 0, "CLASSIFICATION_TYPE": "U", "NORAD_CAT_ID": 31388, "ELEMENT_SET_NO": 999, "REV_AT_EPOCH": 96378, "BSTAR": 0.00016771455, "MEAN_MOTION_DOT": 2.42e-06, "MEAN_MOTION_DDOT": 0}, "tle": {"line1": "1 31388U 99025BSU 25342.24224980  .00000242  00000+0  16771-3 0  9997", "line2": "2 31388  98.8046 330.3208 0046303 213.7576 214.3482 14.07423819963782"}}, "geometry": {"type": "Point", "coordinates": [-75.78540428807507, 77.97067471036256]}}, {"type": "Feature", "properties": {"norad_id": 31389, "name": "FENGYUN 1C DEB", "group": "fengyun-1c-debris", "lat": -24.739719374572637, "lon": 152.05489786051922, "alt_km": 711.0981518096451, "timestamp": "2025-12-08T19:31:49.090827+00:00", "meta": {"OBJECT_NAME": "FENGYUN 1C DEB", "OBJECT_ID": "1999-025BSV", "EPOCH": "2025-12-07T22:57:44.824320", "MEAN_MOTION": 14.60652931, "ECCENTRICITY": 0.00296305, "INCLINATION": 99.0424, "RA_OF_ASC_NODE": 146.9119, "ARG_OF_PERICENTER": 203.0769, "MEAN_ANOMALY": 307.8729, "EPHEMERIS_TYPE": 0, "CLASSIFICATION_TYPE": "U", "NORAD_CAT_ID": 31389, "ELEMENT_SET_NO": 999, "REV_AT_EPOCH": 96427, "BSTAR": 0.0065429867, "MEAN_MOTION_DOT": 0.00032139, "MEAN_MOTION_DDOT": 0}, "tle": {"line1": "1 31389U 99025BSV 25341.95676880  .00032139  00000+0  65430-2 0  9990", "line2": "2 31389  99.0424 146.9119 0029630 203.0769 307.8729 14.60652931964273"}}, "geometry": {"type": "Point", "coordinates": [152.05489786051922, -24.739719374572637]}}, {"type": "Feature", "properties": {"norad_id": 31410, "name": "FENGYUN 1C DEB", "group": "fengyun-1c-debris", "lat": -61.187931163813474, "lon": 160.63738447145113, "alt_km": 671.2929716121325, "timestamp": "2025-12-08T19:31:49.090836+00:00", "meta": {"OBJECT_NAME": "FENGYUN 1C DEB", "OBJECT_ID": "1999-025BSW", "EPOCH": "2025-12-07T17:17:24.959328", "MEAN_MOTION": 14.44721575, "ECCENTRICITY": 0.01105819, "INCLINATION": 98.8363, "RA_OF_ASC_NODE": 143.0724, "ARG_OF_PERICENTER": 301.77, "MEAN_ANOMALY": 72.6567, "EPHEMERIS_TYPE": 0, "CLASSIFICATION_TYPE": "U", "NORAD_CAT_ID": 31410, "ELEMENT_SET_NO": 999, "REV_AT_EPOCH": 97679, "BSTAR": 0.001369376, "MEAN_MOTION_DOT": 5.07e-05, "MEAN_MOTION_DDOT": 0}, "tle": {"line1": "1 31410U 99025BSW 25341.72042777  .00005070  00000+0  13694-2 0  9991", "line2": "2 31410  98.8363 143.0724 0110581 301.7700  72.6567 14.44721575976794"}}, "geometry": {"type": "Point", "coordinates": [160.63738447145113, -61.187931163813474]}}, {"type": "Feature", "properties": {"norad_id": 31411, "name": "FENGYUN 1C DEB", "group": "fengyun-1c-debris", "lat": -67.5443999472499, "lon": 65.78609340574494, "alt_km": 739.8674191527407, "timestamp": "2025-12-08T19:31:49.090845+00:00", "meta": {"OBJECT_NAME": "FENGYUN 1C DEB", "OBJECT_ID": "1999-025BSX", "EPOCH": "2025-12-07T22:50:09.141216", "MEAN_MOTION": 14.27969404, "ECCENTRICITY": 0.01005947, "INCLINATION": 98.6695, "RA_OF_ASC_NODE": 43.2666, "ARG_OF_PERICENTER": 268.9503, "MEAN_ANOMALY": 271.2779, "EPHEMERIS_TYPE": 0, "CLASSIFICATION_TYPE": "U", "NORAD_CAT_ID": 31411, "ELEMENT_SET_NO": 999, "REV_AT_EPOCH": 94411, "BSTAR": 0.00077081213, "MEAN_MOTION_DOT": 1.972e-05, "MEAN_MOTION_DDOT": 0}, "tle": {"line1": "1 31411U 99025BSX 25341.95149469  .00001972  00000+0  77081-3 0  9991", "line2": "2 31411  98.6695  43.2666 0100594 268.9503 271.2779 14.27969404944114"}}, "geometry": {"type": "Point", "coordinates": [65.78609340574494, -67.5443999472499]}}, {"type": "Feature", "properties": {"norad_id": 31412, "name": "FENGYUN 1C DEB", "group": "fengyun-1c-debris", "lat": 12.507574040912507, "lon": 108.82077166380425, "alt_km": 921.658746192631, "timestamp": "2025-12-08T19:31:49.090854+00:00", "meta": {"OBJECT_NAME": "FENGYUN 1C DEB", "OBJECT_ID": "1999-025BSY", "EPOCH": "2025-12-07T06:58:06.659904", "MEAN_MOTION": 14.09777952, "ECCENTRICITY": 0.00835205, "INCLINATION": 98.551, "RA_OF_ASC_NODE": 285.4605, "ARG_OF_PERICENTER": 350.1552, "MEAN_ANOMALY": 9.7979, "EPHEMERIS_TYPE": 0, "CLASSIFICATION_TYPE": "U", "NORAD_CAT_ID": 31412, "ELEMENT_SET_NO": 999, "REV_AT_EPOCH": 60915, "BSTAR": 0.0029120208, "MEAN_MOTION_DOT": 5.245e-05, "MEAN_MOTION_DDOT": 0}, "tle": {"line1": "1 31412U 99025BSY 25341.29035486  .00005245  00000+0  29120-2 0  9999", "line2": "2 31412  98.5510 285.4605 0083520 350.1552   9.7979 14.09777952609153"}}, "geometry": {"type": "Point", "coordinates": [108.82077166380425, 12.507574040912507]}}, {"type": "Feature", "properties": {"norad_id": 31415, "name": "FENGYUN 1C DEB", "group": "fengyun-1c-debris", "lat": 80.02688103638398, "lon": -140.63958352414457, "alt_km": 736.8486205607442, "timestamp": "2025-12-08T19:31:49.090863+00:00", "meta": {"OBJECT_NAME": "FENGYUN 1C DEB", "OBJECT_ID": "1999-025BTB", "EPOCH": "2025-11-30T02:58:22.044864", "MEAN_MOTION": 14.30472505, "ECCENTRICITY": 0.00637436, "INCLINATION": 99.637, "RA_OF_ASC_NODE": 284.8171, "ARG_OF_PERICENTER": 110.0761, "MEAN_ANOMALY": 250.7294, "EPHEMERIS_TYPE": 0, "CLASSIFICATION_TYPE": "U", "NORAD_CAT_ID": 31415, "ELEMENT_SET_NO": 999, "REV_AT_EPOCH": 62650, "BSTAR": 0.0013587885, "MEAN_MOTION_DOT": 3.567e-05, "MEAN_MOTION_DDOT": 0}, "tle": {"line1": "1 31415U 99025BTB 25334.12386626  .00003567  00000+0  13588-2 0  9997", "line2": "2 31415  99.6370 284.8171 0063743 110.0761 250.7294 14.30472505626509"}}, "geometry": {"type": "Point", "coordinates": [-140.63958352414457, 80.02688103638398]}}]}